[{"OBJECT_NAME":"STARLINK-3535","OBJECT_ID":"2022-016J","EPOCH":"2025-08-07T22:58:09.658272","MEAN_MOTION":15.08838186,"ECCENTRICITY":0.0001189,"INCLINATION":53.2166,"RA_OF_ASC_NODE":208.6039,"ARG_OF_PERICENTER":78.3627,"MEAN_ANOMALY":281.7499,"EPHEMERIS_TYPE":0,"CLASSIFICATION_TYPE":"U","NORAD_CAT_ID":51722,"ELEMENT_SET_NO":999,"REV_AT_EPOCH":19222,"BSTAR":6.7496e-5,"MEAN_MOTION_DOT":7.86e-6,"MEAN_MOTION_DDOT":0},{"OBJECT_NAME":"STARLINK-3529","OBJECT_ID":"2022-016L","EPOCH":"2025-08-07T08:29:05.733312","MEAN_MOTION":15.08833405,"ECCENTRICITY":0.0001176,"INCLINATION":53.2167,"RA_OF_ASC_NODE":211.3133,"ARG_OF_PERICENTER":72.9199,"MEAN_ANOMALY":287.1922,"EPHEMERIS_TYPE":0,"CLASSIFICATION_TYPE":"U","NORAD_CAT_ID":51724,"ELEMENT_SET_NO":999,"REV_AT_EPOCH":19213,"BSTAR":-1.5366e-5,"MEAN_MOTION_DOT":-5.32e-6,"MEAN_MOTION_DDOT":0},{"OBJECT_NAME":"STARLINK-3522","OBJECT_ID":"2022-016M","EPOCH":"2025-08-07T23:03:27.801216","MEAN_MOTION":15.08835256,"ECCENTRICITY":0.0001214,"INCLINATION":53.2169,"RA_OF_ASC_NODE":208.5871,"ARG_OF_PERICENTER":81.5429,"MEAN_ANOMALY":278.5701,"EPHEMERIS_TYPE":0,"CLASSIFICATION_TYPE":"U","NORAD_CAT_ID":51725,"ELEMENT_SET_NO":999,"REV_AT_EPOCH":19229,"BSTAR":1.8677e-5,"MEAN_MOTION_DOT":9.0e-8,"MEAN_MOTION_DDOT":0},{"OBJECT_NAME":"STARLINK-3527","OBJECT_ID":"2022-016N","EPOCH":"2025-08-07T09:28:42.532608","MEAN_MOTION":15.08837416,"ECCENTRICITY":0.0001221,"INCLINATION":53.2166,"RA_OF_ASC_NODE":201.1273,"ARG_OF_PERICENTER":84.8925,"MEAN_ANOMALY":275.2207,"EPHEMERIS_TYPE":0,"CLASSIFICATION_TYPE":"U","NORAD_CAT_ID":51726,"ELEMENT_SET_NO":999,"REV_AT_EPOCH":19228,"BSTAR":3.7845e-5,"MEAN_MOTION_DOT":3.14e-6,"MEAN_MOTION_DDOT":0},{"OBJECT_NAME":"STARLINK-3532","OBJECT_ID":"2022-016P","EPOCH":"2025-08-07T08:34:23.542752","MEAN_MOTION":15.08836179,"ECCENTRICITY":0.000105,"INCLINATION":53.2163,"RA_OF_ASC_NODE":211.2964,"ARG_OF_PERICENTER":63.6339,"MEAN_ANOMALY":296.476,"EPHEMERIS_TYPE":0,"CLASSIFICATION_TYPE":"U","NORAD_CAT_ID":51727,"ELEMENT_SET_NO":999,"REV_AT_EPOCH":19213,"BSTAR":-4.3069e-6,"MEAN_MOTION_DOT":-3.56e-6,"MEAN_MOTION_DDOT":0},{"OBJECT_NAME":"STARLINK-3523","OBJECT_ID":"2022-016R","EPOCH":"2025-08-07T22:17:05.719488","MEAN_MOTION":15.08837491,"ECCENTRICITY":0.0001525,"INCLINATION":53.2165,"RA_OF_ASC_NODE":198.7308,"ARG_OF_PERICENTER":83.7666,"MEAN_ANOMALY":276.35,"EPHEMERIS_TYPE":0,"CLASSIFICATION_TYPE":"U","NORAD_CAT_ID":51729,"ELEMENT_SET_NO":999,"REV_AT_EPOCH":19243,"BSTAR":1.6092e-5,"MEAN_MOTION_DOT":-3.2e-7,"MEAN_MOTION_DDOT":0},{"OBJECT_NAME":"STARLINK-3514","OBJECT_ID":"2022-016T","EPOCH":"2025-08-07T07:48:01.520640","MEAN_MOTION":15.08838812,"ECCENTRICITY":0.0001243,"INCLINATION":53.2169,"RA_OF_ASC_NODE":201.4438,"ARG_OF_PERICENTER":87.4221,"MEAN_ANOMALY":272.6914,"EPHEMERIS_TYPE":0,"CLASSIFICATION_TYPE":"U","NORAD_CAT_ID":51731,"ELEMENT_SET_NO":999,"REV_AT_EPOCH":19232,"BSTAR":-2.9788e-5,"MEAN_MOTION_DOT":-7.62e-6,"MEAN_MOTION_DDOT":0},{"OBJECT_NAME":"STARLINK-3518","OBJECT_ID":"2022-016U","EPOCH":"2025-08-07T23:20:40.992288","MEAN_MOTION":15.08832947,"ECCENTRICITY":0.0001234,"INCLINATION":53.2169,"RA_OF_ASC_NODE":198.5362,"ARG_OF_PERICENTER":83.6083,"MEAN_ANOMALY":276.505,"EPHEMERIS_TYPE":0,"CLASSIFICATION_TYPE":"U","NORAD_CAT_ID":51732,"ELEMENT_SET_NO":999,"REV_AT_EPOCH":19244,"BSTAR":4.8277e-6,"MEAN_MOTION_DOT":-2.11e-6,"MEAN_MOTION_DDOT":0},{"OBJECT_NAME":"STARLINK-3525","OBJECT_ID":"2022-016V","EPOCH":"2025-08-07T23:32:39.758208","MEAN_MOTION":15.08835016,"ECCENTRICITY":0.0001209,"INCLINATION":53.2162,"RA_OF_ASC_NODE":198.5075,"ARG_OF_PERICENTER":78.0089,"MEAN_ANOMALY":282.1039,"EPHEMERIS_TYPE":0,"CLASSIFICATION_TYPE":"U","NORAD_CAT_ID":51733,"ELEMENT_SET_NO":999,"REV_AT_EPOCH":19237,"BSTAR":1.0931e-5,"MEAN_MOTION_DOT":-1.14e-6,"MEAN_MOTION_DDOT":0},{"OBJECT_NAME":"STARLINK-3450","OBJECT_ID":"2022-016W","EPOCH":"2025-08-07T23:04:47.277120","MEAN_MOTION":15.08833681,"ECCENTRICITY":0.0001278,"INCLINATION":53.2169,"RA_OF_ASC_NODE":198.5828,"ARG_OF_PERICENTER":78.8405,"MEAN_ANOMALY":281.273,"EPHEMERIS_TYPE":0,"CLASSIFICATION_TYPE":"U","NORAD_CAT_ID":51734,"ELEMENT_SET_NO":999,"REV_AT_EPOCH":19240,"BSTAR":-8.6058e-5,"MEAN_MOTION_DOT":-1.657e-5,"MEAN_MOTION_DDOT":0},{"OBJECT_NAME":"STARLINK-3517","OBJECT_ID":"2022-016X","EPOCH":"2025-08-07T23:15:23.187168","MEAN_MOTION":15.08833088,"ECCENTRICITY":9.37e-5,"INCLINATION":53.2165,"RA_OF_ASC_NODE":198.5517,"ARG_OF_PERICENTER":77.6427,"MEAN_ANOMALY":282.467,"EPHEMERIS_TYPE":0,"CLASSIFICATION_TYPE":"U","NORAD_CAT_ID":51735,"ELEMENT_SET_NO":999,"REV_AT_EPOCH":19241,"BSTAR":2.4261e-5,"MEAN_MOTION_DOT":9.8e-7,"MEAN_MOTION_DDOT":0},{"OBJECT_NAME":"STARLINK-3447","OBJECT_ID":"2022-016Y","EPOCH":"2025-08-07T23:06:10.551168","MEAN_MOTION":15.0883532,"ECCENTRICITY":0.0001178,"INCLINATION":53.2161,"RA_OF_ASC_NODE":198.6675,"ARG_OF_PERICENTER":78.902,"MEAN_ANOMALY":281.2104,"EPHEMERIS_TYPE":0,"CLASSIFICATION_TYPE":"U","NORAD_CAT_ID":51736,"ELEMENT_SET_NO":999,"REV_AT_EPOCH":19242,"BSTAR":1.4094e-5,"MEAN_MOTION_DOT":-6.4e-7,"MEAN_MOTION_DDOT":0},{"OBJECT_NAME":"STARLINK-3509","OBJECT_ID":"2022-016Z","EPOCH":"2025-08-07T08:51:36.511776","MEAN_MOTION":15.08839436,"ECCENTRICITY":0.0001035,"INCLINATION":53.2166,"RA_OF_ASC_NODE":201.2452,"ARG_OF_PERICENTER":71.8251,"MEAN_ANOMALY":288.2853,"EPHEMERIS_TYPE":0,"CLASSIFICATION_TYPE":"U","NORAD_CAT_ID":51737,"ELEMENT_SET_NO":999,"REV_AT_EPOCH":19226,"BSTAR":3.5061e-6,"MEAN_MOTION_DOT":-2.32e-6,"MEAN_MOTION_DDOT":0},{"OBJECT_NAME":"STARLINK-3515","OBJECT_ID":"2022-016AA","EPOCH":"2025-08-08T05:05:07.494720","MEAN_MOTION":15.08842311,"ECCENTRICITY":0.0001108,"INCLINATION":53.2164,"RA_OF_ASC_NODE":197.461,"ARG_OF_PERICENTER":75.417,"MEAN_ANOMALY":284.6945,"EPHEMERIS_TYPE":0,"CLASSIFICATION_TYPE":"U","NORAD_CAT_ID":51738,"ELEMENT_SET_NO":999,"REV_AT_EPOCH":19244,"BSTAR":1.4041e-5,"MEAN_MOTION_DOT":-6.4e-7,"MEAN_MOTION_DDOT":0},{"OBJECT_NAME":"STARLINK-3516","OBJECT_ID":"2022-016AB","EPOCH":"2025-08-08T05:21:01.672128","MEAN_MOTION":15.08835812,"ECCENTRICITY":0.0001267,"INCLINATION":53.2165,"RA_OF_ASC_NODE":197.4122,"ARG_OF_PERICENTER":85.7964,"MEAN_ANOMALY":274.3173,"EPHEMERIS_TYPE":0,"CLASSIFICATION_TYPE":"U","NORAD_CAT_ID":51739,"ELEMENT_SET_NO":999,"REV_AT_EPOCH":19246,"BSTAR":4.2782e-6,"MEAN_MOTION_DOT":-2.2e-6,"MEAN_MOTION_DDOT":0},{"OBJECT_NAME":"STARLINK-3500","OBJECT_ID":"2022-016AC","EPOCH":"2025-08-07T16:11:26.668608","MEAN_MOTION":15.08840618,"ECCENTRICITY":0.00012,"INCLINATION":53.2164,"RA_OF_ASC_NODE":199.8724,"ARG_OF_PERICENTER":86.5028,"MEAN_ANOMALY":273.6101,"EPHEMERIS_TYPE":0,"CLASSIFICATION_TYPE":"U","NORAD_CAT_ID":51740,"ELEMENT_SET_NO":999,"REV_AT_EPOCH":19231,"BSTAR":2.2196e-5,"MEAN_MOTION_DOT":6.5e-7,"MEAN_MOTION_DDOT":0},{"OBJECT_NAME":"STARLINK-3520","OBJECT_ID":"2022-016AD","EPOCH":"2025-08-08T05:11:48.658560","MEAN_MOTION":15.08836005,"ECCENTRICITY":0.000125,"INCLINATION":53.2162,"RA_OF_ASC_NODE":197.4501,"ARG_OF_PERICENTER":80.6672,"MEAN_ANOMALY":279.4462,"EPHEMERIS_TYPE":0,"CLASSIFICATION_TYPE":"U","NORAD_CAT_ID":51741,"ELEMENT_SET_NO":999,"REV_AT_EPOCH":19245,"BSTAR":-3.9216e-5,"MEAN_MOTION_DOT":-9.12e-6,"MEAN_MOTION_DDOT":0}]
