STARLINK-3535           
1 51722U 22016J   25219.95705623  .00000786  00000+0  67496-4 0  9990
2 51722  53.2166 208.6039 0001189  78.3627 281.7499 15.08838186192226
STARLINK-3529           
1 51724U 22016L   25219.35353858 -.00000532  00000+0 -15366-4 0  9995
2 51724  53.2167 211.3133 0001176  72.9199 287.1922 15.08833405192135
STARLINK-3522           
1 51725U 22016M   25219.96073844  .00000009  00000+0  18677-4 0  9992
2 51725  53.2169 208.5871 0001214  81.5429 278.5701 15.08835256192292
STARLINK-3527           
1 51726U 22016N   25219.39493672  .00000314  00000+0  37845-4 0  9992
2 51726  53.2166 201.1273 0001221  84.8925 275.2207 15.08837416192284
STARLINK-3532           
1 51727U 22016P   25219.35721693 -.00000356  00000+0 -43069-5 0  9990
2 51727  53.2163 211.2964 0001050  63.6339 296.4760 15.08836179192133
STARLINK-3523           
1 51729U 22016R   25219.92853842 -.00000032  00000+0  16092-4 0  9992
2 51729  53.2165 198.7308 0001525  83.7666 276.3500 15.08837491192431
STARLINK-3514           
1 51731U 22016T   25219.32501760 -.00000762  00000+0 -29788-4 0  9995
2 51731  53.2169 201.4438 0001243  87.4221 272.6914 15.08838812192323
STARLINK-3518           
1 51732U 22016U   25219.97269667 -.00000211  00000+0  48277-5 0  9997
2 51732  53.2169 198.5362 0001234  83.6083 276.5050 15.08832947192440
STARLINK-3525           
1 51733U 22016V   25219.98101572 -.00000114  00000+0  10931-4 0  9996
2 51733  53.2162 198.5075 0001209  78.0089 282.1039 15.08835016192373
STARLINK-3450           
1 51734U 22016W   25219.96165830 -.00001657  00000+0 -86058-4 0  9999
2 51734  53.2169 198.5828 0001278  78.8405 281.2730 15.08833681192401
STARLINK-3517           
1 51735U 22016X   25219.96901837  .00000098  00000+0  24261-4 0  9999
2 51735  53.2165 198.5517 0000937  77.6427 282.4670 15.08833088192413
STARLINK-3447           
1 51736U 22016Y   25219.96262212 -.00000064  00000+0  14094-4 0  9994
2 51736  53.2161 198.6675 0001178  78.9020 281.2104 15.08835320192428
STARLINK-3509           
1 51737U 22016Z   25219.36917259 -.00000232  00000+0  35061-5 0  9992
2 51737  53.2166 201.2452 0001035  71.8251 288.2853 15.08839436192260
STARLINK-3515           
1 51738U 22016AA  25220.21189230 -.00000064  00000+0  14041-4 0  9996
2 51738  53.2164 197.4610 0001108  75.4170 284.6945 15.08842311192440
STARLINK-3516           
1 51739U 22016AB  25220.22293602 -.00000220  00000+0  42782-5 0  9995
2 51739  53.2165 197.4122 0001267  85.7964 274.3173 15.08835812192460
STARLINK-3500           
1 51740U 22016AC  25219.67461422  .00000065  00000+0  22196-4 0  9993
2 51740  53.2164 199.8724 0001200  86.5028 273.6101 15.08840618192319
STARLINK-3520           
1 51741U 22016AD  25220.21653540 -.00000912  00000+0 -39216-4 0  9994
2 51741  53.2162 197.4501 0001250  80.6672 279.4462 15.08836005192454
